[
  {
    "name": "STARLINK-36279",
    "tle1": "1 67193U 25304B   26079.56150316 -.00260542  00000+0 -23205-1 0  9994",
    "tle2": "2 67193  70.0014 147.0249 0001812 300.3226  59.7753 14.97398448 15510"
  },
  {
    "name": "STARLINK-36284",
    "tle1": "1 67194U 25304C   26079.58193673  .00006708  00000+0  56916-3 0  9997",
    "tle2": "2 67194  70.0006 147.1031 0005307 282.3690  77.6875 14.98345617 15514"
  },
  {
    "name": "STARLINK-36291",
    "tle1": "1 67195U 25304D   26079.59879383  .00002059  00000+0  18023-3 0  9990",
    "tle2": "2 67195  70.0003 147.1576 0003743 272.8624  87.2107 14.98344806 15513"
  },
  {
    "name": "STARLINK-36239",
    "tle1": "1 67196U 25304E   26079.59445519  .00003093  00000+0  26689-3 0  9997",
    "tle2": "2 67196  70.0010 147.1468 0003263 270.9269  89.1516 14.98336448 15511"
  },
  {
    "name": "STARLINK-36283",
    "tle1": "1 67197U 25304F   26079.47760361  .00002084  00000+0  18233-3 0  9995",
    "tle2": "2 67197  70.0006 147.1331 0003543 274.4192  85.6562 14.98344006 15501"
  },
  {
    "name": "STARLINK-36267",
    "tle1": "1 67198U 25304G   26079.44006370  .00002996  00000+0  25876-3 0  9999",
    "tle2": "2 67198  70.0011 147.4074 0003381 271.7461  88.3311 14.98336354 15468"
  },
  {
    "name": "STARLINK-36268",
    "tle1": "1 67199U 25304H   26078.66668981  .00027915  00000+0  23388-2 0  9998",
    "tle2": "2 67199  70.0007 149.4030 0003182 274.7592 189.0050 14.98315948  5683"
  },
  {
    "name": "STARLINK-36270",
    "tle1": "1 67200U 25304J   26079.42353176  .00000081  00000+0  14569-4 0  9991",
    "tle2": "2 67200  70.0040 147.3553 0002581 239.4497 120.6407 14.98331423 15497"
  },
  {
    "name": "STARLINK-36262",
    "tle1": "1 67201U 25304K   26079.45676083  .00002421  00000+0  21061-3 0  9994",
    "tle2": "2 67201  70.0012 147.4677 0003175 269.2957  90.7838 14.98335458 15494"
  },
  {
    "name": "STARLINK-36263",
    "tle1": "1 67202U 25304L   26079.57775881  .00004567  00000+0  39019-3 0  9999",
    "tle2": "2 67202  70.0005 147.0861 0003626 268.9014  91.1730 14.98339385 15511"
  },
  {
    "name": "STARLINK-36224",
    "tle1": "1 67203U 25304M   26079.43588791  .00002479  00000+0  21549-3 0  9996",
    "tle2": "2 67203  70.0005 147.3916 0003867 269.3492  90.7224 14.98336311 15494"
  },
  {
    "name": "STARLINK-36185",
    "tle1": "1 67204U 25304N   26079.41918171 -.00002979  00000+0 -24196-3 0  9992",
    "tle2": "2 67204  69.9996 147.3323 0003922 288.6970  71.3763 14.98332327 15496"
  },
  {
    "name": "STARLINK-36197",
    "tle1": "1 67205U 25304P   26079.47342993  .00003648  00000+0  31329-3 0  9990",
    "tle2": "2 67205  70.0001 147.1191 0003875 273.9062  86.1654 14.98339704 15471"
  },
  {
    "name": "STARLINK-36056",
    "tle1": "1 67206U 25304Q   26079.59044807  .00006545  00000+0  55546-3 0  9993",
    "tle2": "2 67206  70.0010 147.1257 0003366 270.4893  89.5881 14.98353994 15481"
  },
  {
    "name": "STARLINK-36225",
    "tle1": "1 67207U 25304R   26079.44021573 -.00002651  00000+0 -21446-3 0  9991",
    "tle2": "2 67207  70.0014 147.4047 0003912 267.9893  92.0818 14.98331082 15498"
  },
  {
    "name": "STARLINK-36265",
    "tle1": "1 67208U 25304S   26079.58610699  .00005504  00000+0  46861-3 0  9996",
    "tle2": "2 67208  70.0013 147.1159 0003592 267.7931  92.2816 14.98339019 15515"
  }
]