[{"OBJECT_NAME":"STARLINK-36279","OBJECT_ID":"2025-304B","EPOCH":"2026-03-20T13:28:33.873024","MEAN_MOTION":14.97398448,"ECCENTRICITY":0.00018121,"INCLINATION":70.0014,"RA_OF_ASC_NODE":147.0249,"ARG_OF_PERICENTER":300.3226,"MEAN_ANOMALY":59.7753,"EPHEMERIS_TYPE":0,"CLASSIFICATION_TYPE":"U","NORAD_CAT_ID":67193,"ELEMENT_SET_NO":999,"REV_AT_EPOCH":1551,"BSTAR":-0.023204981,"MEAN_MOTION_DOT":-0.00260542,"MEAN_MOTION_DDOT":0},{"OBJECT_NAME":"STARLINK-36284","OBJECT_ID":"2025-304C","EPOCH":"2026-03-20T13:57:59.333472","MEAN_MOTION":14.98345617,"ECCENTRICITY":0.00053071,"INCLINATION":70.0006,"RA_OF_ASC_NODE":147.1031,"ARG_OF_PERICENTER":282.369,"MEAN_ANOMALY":77.6875,"EPHEMERIS_TYPE":0,"CLASSIFICATION_TYPE":"U","NORAD_CAT_ID":67194,"ELEMENT_SET_NO":999,"REV_AT_EPOCH":1551,"BSTAR":0.00056915936,"MEAN_MOTION_DOT":6.708e-5,"MEAN_MOTION_DDOT":0},{"OBJECT_NAME":"STARLINK-36291","OBJECT_ID":"2025-304D","EPOCH":"2026-03-20T14:22:15.786912","MEAN_MOTION":14.98344806,"ECCENTRICITY":0.00037433,"INCLINATION":70.0003,"RA_OF_ASC_NODE":147.1576,"ARG_OF_PERICENTER":272.8624,"MEAN_ANOMALY":87.2107,"EPHEMERIS_TYPE":0,"CLASSIFICATION_TYPE":"U","NORAD_CAT_ID":67195,"ELEMENT_SET_NO":999,"REV_AT_EPOCH":1551,"BSTAR":0.00018023302,"MEAN_MOTION_DOT":2.059e-5,"MEAN_MOTION_DDOT":0},{"OBJECT_NAME":"STARLINK-36239","OBJECT_ID":"2025-304E","EPOCH":"2026-03-20T14:16:00.928416","MEAN_MOTION":14.98336448,"ECCENTRICITY":0.0003263,"INCLINATION":70.001,"RA_OF_ASC_NODE":147.1468,"ARG_OF_PERICENTER":270.9269,"MEAN_ANOMALY":89.1516,"EPHEMERIS_TYPE":0,"CLASSIFICATION_TYPE":"U","NORAD_CAT_ID":67196,"ELEMENT_SET_NO":999,"REV_AT_EPOCH":1551,"BSTAR":0.00026689395,"MEAN_MOTION_DOT":3.093e-5,"MEAN_MOTION_DDOT":0},{"OBJECT_NAME":"STARLINK-36283","OBJECT_ID":"2025-304F","EPOCH":"2026-03-20T11:27:44.951904","MEAN_MOTION":14.98344006,"ECCENTRICITY":0.00035432,"INCLINATION":70.0006,"RA_OF_ASC_NODE":147.1331,"ARG_OF_PERICENTER":274.4192,"MEAN_ANOMALY":85.6562,"EPHEMERIS_TYPE":0,"CLASSIFICATION_TYPE":"U","NORAD_CAT_ID":67197,"ELEMENT_SET_NO":999,"REV_AT_EPOCH":1550,"BSTAR":0.00018232543,"MEAN_MOTION_DOT":2.084e-5,"MEAN_MOTION_DDOT":0},{"OBJECT_NAME":"STARLINK-36267","OBJECT_ID":"2025-304G","EPOCH":"2026-03-20T10:33:41.503680","MEAN_MOTION":14.98336354,"ECCENTRICITY":0.00033812,"INCLINATION":70.0011,"RA_OF_ASC_NODE":147.4074,"ARG_OF_PERICENTER":271.7461,"MEAN_ANOMALY":88.3311,"EPHEMERIS_TYPE":0,"CLASSIFICATION_TYPE":"U","NORAD_CAT_ID":67198,"ELEMENT_SET_NO":999,"REV_AT_EPOCH":1546,"BSTAR":0.00025875985,"MEAN_MOTION_DOT":2.996e-5,"MEAN_MOTION_DDOT":0},{"OBJECT_NAME":"STARLINK-36268","OBJECT_ID":"2025-304H","EPOCH":"2026-03-19T16:00:01.999584","MEAN_MOTION":14.98315948,"ECCENTRICITY":0.00031826,"INCLINATION":70.0007,"RA_OF_ASC_NODE":149.403,"ARG_OF_PERICENTER":274.7592,"MEAN_ANOMALY":189.005,"EPHEMERIS_TYPE":0,"CLASSIFICATION_TYPE":"U","NORAD_CAT_ID":67199,"ELEMENT_SET_NO":999,"REV_AT_EPOCH":568,"BSTAR":0.0023387941,"MEAN_MOTION_DOT":0.00027915,"MEAN_MOTION_DDOT":0},{"OBJECT_NAME":"STARLINK-36270","OBJECT_ID":"2025-304J","EPOCH":"2026-03-20T10:09:53.144064","MEAN_MOTION":14.98331423,"ECCENTRICITY":0.0002581,"INCLINATION":70.004,"RA_OF_ASC_NODE":147.3553,"ARG_OF_PERICENTER":239.4497,"MEAN_ANOMALY":120.6407,"EPHEMERIS_TYPE":0,"CLASSIFICATION_TYPE":"U","NORAD_CAT_ID":67200,"ELEMENT_SET_NO":999,"REV_AT_EPOCH":1549,"BSTAR":1.4568659e-5,"MEAN_MOTION_DOT":8.1e-7,"MEAN_MOTION_DDOT":0},{"OBJECT_NAME":"STARLINK-36262","OBJECT_ID":"2025-304K","EPOCH":"2026-03-20T10:57:44.135712","MEAN_MOTION":14.98335458,"ECCENTRICITY":0.00031757,"INCLINATION":70.0012,"RA_OF_ASC_NODE":147.4677,"ARG_OF_PERICENTER":269.2957,"MEAN_ANOMALY":90.7838,"EPHEMERIS_TYPE":0,"CLASSIFICATION_TYPE":"U","NORAD_CAT_ID":67201,"ELEMENT_SET_NO":999,"REV_AT_EPOCH":1549,"BSTAR":0.00021061207,"MEAN_MOTION_DOT":2.421e-5,"MEAN_MOTION_DDOT":0},{"OBJECT_NAME":"STARLINK-36263","OBJECT_ID":"2025-304L","EPOCH":"2026-03-20T13:51:58.361184","MEAN_MOTION":14.98339385,"ECCENTRICITY":0.0003626,"INCLINATION":70.0005,"RA_OF_ASC_NODE":147.0861,"ARG_OF_PERICENTER":268.9014,"MEAN_ANOMALY":91.173,"EPHEMERIS_TYPE":0,"CLASSIFICATION_TYPE":"U","NORAD_CAT_ID":67202,"ELEMENT_SET_NO":999,"REV_AT_EPOCH":1551,"BSTAR":0.00039018704,"MEAN_MOTION_DOT":4.567e-5,"MEAN_MOTION_DDOT":0},{"OBJECT_NAME":"STARLINK-36224","OBJECT_ID":"2025-304M","EPOCH":"2026-03-20T10:27:40.715424","MEAN_MOTION":14.98336311,"ECCENTRICITY":0.00038679,"INCLINATION":70.0005,"RA_OF_ASC_NODE":147.3916,"ARG_OF_PERICENTER":269.3492,"MEAN_ANOMALY":90.7224,"EPHEMERIS_TYPE":0,"CLASSIFICATION_TYPE":"U","NORAD_CAT_ID":67203,"ELEMENT_SET_NO":999,"REV_AT_EPOCH":1549,"BSTAR":0.0002154851,"MEAN_MOTION_DOT":2.479e-5,"MEAN_MOTION_DDOT":0},{"OBJECT_NAME":"STARLINK-36185","OBJECT_ID":"2025-304N","EPOCH":"2026-03-20T10:03:37.299744","MEAN_MOTION":14.98332327,"ECCENTRICITY":0.00039225,"INCLINATION":69.9996,"RA_OF_ASC_NODE":147.3323,"ARG_OF_PERICENTER":288.697,"MEAN_ANOMALY":71.3763,"EPHEMERIS_TYPE":0,"CLASSIFICATION_TYPE":"U","NORAD_CAT_ID":67204,"ELEMENT_SET_NO":999,"REV_AT_EPOCH":1549,"BSTAR":-0.00024196384,"MEAN_MOTION_DOT":-2.979e-5,"MEAN_MOTION_DDOT":0},{"OBJECT_NAME":"STARLINK-36197","OBJECT_ID":"2025-304P","EPOCH":"2026-03-20T11:21:44.345952","MEAN_MOTION":14.98339704,"ECCENTRICITY":0.00038757,"INCLINATION":70.0001,"RA_OF_ASC_NODE":147.1191,"ARG_OF_PERICENTER":273.9062,"MEAN_ANOMALY":86.1654,"EPHEMERIS_TYPE":0,"CLASSIFICATION_TYPE":"U","NORAD_CAT_ID":67205,"ELEMENT_SET_NO":999,"REV_AT_EPOCH":1547,"BSTAR":0.00031328608,"MEAN_MOTION_DOT":3.648e-5,"MEAN_MOTION_DDOT":0},{"OBJECT_NAME":"STARLINK-36056","OBJECT_ID":"2025-304Q","EPOCH":"2026-03-20T14:10:14.713248","MEAN_MOTION":14.98353994,"ECCENTRICITY":0.00033661,"INCLINATION":70.001,"RA_OF_ASC_NODE":147.1257,"ARG_OF_PERICENTER":270.4893,"MEAN_ANOMALY":89.5881,"EPHEMERIS_TYPE":0,"CLASSIFICATION_TYPE":"U","NORAD_CAT_ID":67206,"ELEMENT_SET_NO":999,"REV_AT_EPOCH":1548,"BSTAR":0.00055545552,"MEAN_MOTION_DOT":6.545e-5,"MEAN_MOTION_DDOT":0},{"OBJECT_NAME":"STARLINK-36225","OBJECT_ID":"2025-304R","EPOCH":"2026-03-20T10:33:54.639072","MEAN_MOTION":14.98331082,"ECCENTRICITY":0.00039125,"INCLINATION":70.0014,"RA_OF_ASC_NODE":147.4047,"ARG_OF_PERICENTER":267.9893,"MEAN_ANOMALY":92.0818,"EPHEMERIS_TYPE":0,"CLASSIFICATION_TYPE":"U","NORAD_CAT_ID":67207,"ELEMENT_SET_NO":999,"REV_AT_EPOCH":1549,"BSTAR":-0.00021445638,"MEAN_MOTION_DOT":-2.651e-5,"MEAN_MOTION_DDOT":0},{"OBJECT_NAME":"STARLINK-36265","OBJECT_ID":"2025-304S","EPOCH":"2026-03-20T14:03:59.643936","MEAN_MOTION":14.98339019,"ECCENTRICITY":0.00035929,"INCLINATION":70.0013,"RA_OF_ASC_NODE":147.1159,"ARG_OF_PERICENTER":267.7931,"MEAN_ANOMALY":92.2816,"EPHEMERIS_TYPE":0,"CLASSIFICATION_TYPE":"U","NORAD_CAT_ID":67208,"ELEMENT_SET_NO":999,"REV_AT_EPOCH":1551,"BSTAR":0.00046861413,"MEAN_MOTION_DOT":5.504e-5,"MEAN_MOTION_DDOT":0}]
